[
    {
        "OBJECT_NAME": "CHINASAT 32 (BEIDOU-1 G1)",
        "OBJECT_ID": "2000-069A",
        "EPOCH": "2026-07-22T02:58:58.546272",
        "MEAN_MOTION": 0.98906826,
        "ECCENTRICITY": 0.00069481,
        "INCLINATION": 12.4031,
        "RA_OF_ASC_NODE": 32.0005,
        "ARG_OF_PERICENTER": 358.5406,
        "MEAN_ANOMALY": 359.189,
        "EPHEMERIS_TYPE": 0,
        "CLASSIFICATION_TYPE": "U",
        "NORAD_CAT_ID": 26599,
        "ELEMENT_SET_NO": 999,
        "REV_AT_EPOCH": 9352,
        "BSTAR": 0,
        "MEAN_MOTION_DOT": 1.8e-07,
        "MEAN_MOTION_DDOT": 0
    },
    {
        "OBJECT_NAME": "CHINASAT 31 (BEIDOU-1 G2)",
        "OBJECT_ID": "2000-082A",
        "EPOCH": "2026-07-22T03:48:59.963040",
        "MEAN_MOTION": 0.99252189,
        "ECCENTRICITY": 0.0080419,
        "INCLINATION": 12.6411,
        "RA_OF_ASC_NODE": 27.0435,
        "ARG_OF_PERICENTER": 89.7168,
        "MEAN_ANOMALY": 100.3745,
        "EPHEMERIS_TYPE": 0,
        "CLASSIFICATION_TYPE": "U",
        "NORAD_CAT_ID": 26643,
        "ELEMENT_SET_NO": 999,
        "REV_AT_EPOCH": 5242,
        "BSTAR": 0,
        "MEAN_MOTION_DOT": 5.3e-07,
        "MEAN_MOTION_DDOT": 0
    },
    {
        "OBJECT_NAME": "BEIDOU-1 G3",
        "OBJECT_ID": "2003-021A",
        "EPOCH": "2026-07-22T11:24:39.828672",
        "MEAN_MOTION": 0.99777816,
        "ECCENTRICITY": 0.00177213,
        "INCLINATION": 11.4432,
        "RA_OF_ASC_NODE": 40.8893,
        "ARG_OF_PERICENTER": 308.2729,
        "MEAN_ANOMALY": 316.1024,
        "EPHEMERIS_TYPE": 0,
        "CLASSIFICATION_TYPE": "U",
        "NORAD_CAT_ID": 27813,
        "ELEMENT_SET_NO": 999,
        "REV_AT_EPOCH": 8465,
        "BSTAR": 0,
        "MEAN_MOTION_DOT": 3.7e-07,
        "MEAN_MOTION_DDOT": 0
    },
    {
        "OBJECT_NAME": "BEIDOU-1 G4",
        "OBJECT_ID": "2007-003A",
        "EPOCH": "2026-07-22T14:06:13.461984",
        "MEAN_MOTION": 0.99159859,
        "ECCENTRICITY": 0.00530386,
        "INCLINATION": 9.9726,
        "RA_OF_ASC_NODE": 56.5742,
        "ARG_OF_PERICENTER": 276.3316,
        "MEAN_ANOMALY": 342.9116,
        "EPHEMERIS_TYPE": 0,
        "CLASSIFICATION_TYPE": "U",
        "NORAD_CAT_ID": 30323,
        "ELEMENT_SET_NO": 999,
        "REV_AT_EPOCH": 7105,
        "BSTAR": 0,
        "MEAN_MOTION_DOT": -2.5e-06,
        "MEAN_MOTION_DDOT": 0
    },
    {
        "OBJECT_NAME": "BEIDOU-2 M1",
        "OBJECT_ID": "2007-011A",
        "EPOCH": "2026-07-20T15:29:45.981312",
        "MEAN_MOTION": 1.77349452,
        "ECCENTRICITY": 0.00021108,
        "INCLINATION": 50.9225,
        "RA_OF_ASC_NODE": 218.1656,
        "ARG_OF_PERICENTER": 328.6539,
        "MEAN_ANOMALY": 31.3669,
        "EPHEMERIS_TYPE": 0,
        "CLASSIFICATION_TYPE": "U",
        "NORAD_CAT_ID": 31115,
        "ELEMENT_SET_NO": 999,
        "REV_AT_EPOCH": 7674,
        "BSTAR": 0,
        "MEAN_MOTION_DOT": 5.1e-07,
        "MEAN_MOTION_DDOT": 0
    },
    {
        "OBJECT_NAME": "BEIDOU-2 G2",
        "OBJECT_ID": "2009-018A",
        "EPOCH": "2026-07-22T01:56:38.603040",
        "MEAN_MOTION": 0.94517493,
        "ECCENTRICITY": 0.03049862,
        "INCLINATION": 11.5122,
        "RA_OF_ASC_NODE": 41.916,
        "ARG_OF_PERICENTER": 286.2152,
        "MEAN_ANOMALY": 282.0737,
        "EPHEMERIS_TYPE": 0,
        "CLASSIFICATION_TYPE": "U",
        "NORAD_CAT_ID": 34779,
        "ELEMENT_SET_NO": 999,
        "REV_AT_EPOCH": 6248,
        "BSTAR": 0,
        "MEAN_MOTION_DOT": -1.72e-06,
        "MEAN_MOTION_DDOT": 0
    },
    {
        "OBJECT_NAME": "BEIDOU-2 G1",
        "OBJECT_ID": "2010-001A",
        "EPOCH": "2026-07-22T13:41:58.004736",
        "MEAN_MOTION": 1.00270082,
        "ECCENTRICITY": 0.0001726,
        "INCLINATION": 4.3748,
        "RA_OF_ASC_NODE": 60.2868,
        "ARG_OF_PERICENTER": 298.0062,
        "MEAN_ANOMALY": 287.9566,
        "EPHEMERIS_TYPE": 0,
        "CLASSIFICATION_TYPE": "U",
        "NORAD_CAT_ID": 36287,
        "ELEMENT_SET_NO": 999,
        "REV_AT_EPOCH": 6052,
        "BSTAR": 0,
        "MEAN_MOTION_DOT": -2.8e-06,
        "MEAN_MOTION_DDOT": 0
    },
    {
        "OBJECT_NAME": "BEIDOU-2 G3",
        "OBJECT_ID": "2010-024A",
        "EPOCH": "2026-07-21T15:28:06.729312",
        "MEAN_MOTION": 1.00273888,
        "ECCENTRICITY": 0.00072355,
        "INCLINATION": 4.5954,
        "RA_OF_ASC_NODE": 61.3561,
        "ARG_OF_PERICENTER": 359.4237,
        "MEAN_ANOMALY": 190.2146,
        "EPHEMERIS_TYPE": 0,
        "CLASSIFICATION_TYPE": "U",
        "NORAD_CAT_ID": 36590,
        "ELEMENT_SET_NO": 999,
        "REV_AT_EPOCH": 5911,
        "BSTAR": 0,
        "MEAN_MOTION_DOT": -1.37e-06,
        "MEAN_MOTION_DDOT": 0
    },
    {
        "OBJECT_NAME": "BEIDOU-2 IGSO-1",
        "OBJECT_ID": "2010-036A",
        "EPOCH": "2026-07-19T14:08:33.404064",
        "MEAN_MOTION": 1.00262639,
        "ECCENTRICITY": 0.00586524,
        "INCLINATION": 54.3073,
        "RA_OF_ASC_NODE": 162.6674,
        "ARG_OF_PERICENTER": 225.1805,
        "MEAN_ANOMALY": 228.5775,
        "EPHEMERIS_TYPE": 0,
        "CLASSIFICATION_TYPE": "U",
        "NORAD_CAT_ID": 36828,
        "ELEMENT_SET_NO": 999,
        "REV_AT_EPOCH": 5842,
        "BSTAR": 0,
        "MEAN_MOTION_DOT": -9.7e-07,
        "MEAN_MOTION_DDOT": 0
    },
    {
        "OBJECT_NAME": "BEIDOU-2 G4",
        "OBJECT_ID": "2010-057A",
        "EPOCH": "2026-07-22T13:47:34.967328",
        "MEAN_MOTION": 1.0027315,
        "ECCENTRICITY": 0.00052526,
        "INCLINATION": 3.733,
        "RA_OF_ASC_NODE": 68.7257,
        "ARG_OF_PERICENTER": 183.8836,
        "MEAN_ANOMALY": 54.5544,
        "EPHEMERIS_TYPE": 0,
        "CLASSIFICATION_TYPE": "U",
        "NORAD_CAT_ID": 37210,
        "ELEMENT_SET_NO": 999,
        "REV_AT_EPOCH": 5764,
        "BSTAR": 0,
        "MEAN_MOTION_DOT": -1.12e-06,
        "MEAN_MOTION_DDOT": 0
    },
    {
        "OBJECT_NAME": "BEIDOU-2 IGSO-2",
        "OBJECT_ID": "2010-068A",
        "EPOCH": "2026-07-21T21:04:35.859648",
        "MEAN_MOTION": 1.00271863,
        "ECCENTRICITY": 0.00570454,
        "INCLINATION": 47.4828,
        "RA_OF_ASC_NODE": 271.3972,
        "ARG_OF_PERICENTER": 214.5351,
        "MEAN_ANOMALY": 238.1175,
        "EPHEMERIS_TYPE": 0,
        "CLASSIFICATION_TYPE": "U",
        "NORAD_CAT_ID": 37256,
        "ELEMENT_SET_NO": 999,
        "REV_AT_EPOCH": 5714,
        "BSTAR": 0,
        "MEAN_MOTION_DOT": -1.98e-06,
        "MEAN_MOTION_DDOT": 0
    },
    {
        "OBJECT_NAME": "BEIDOU-2 IGSO-3",
        "OBJECT_ID": "2011-013A",
        "EPOCH": "2026-07-21T11:51:52.944192",
        "MEAN_MOTION": 1.00259347,
        "ECCENTRICITY": 0.00358813,
        "INCLINATION": 62.4558,
        "RA_OF_ASC_NODE": 39.8259,
        "ARG_OF_PERICENTER": 183.5212,
        "MEAN_ANOMALY": 359.988,
        "EPHEMERIS_TYPE": 0,
        "CLASSIFICATION_TYPE": "U",
        "NORAD_CAT_ID": 37384,
        "ELEMENT_SET_NO": 999,
        "REV_AT_EPOCH": 5600,
        "BSTAR": 0,
        "MEAN_MOTION_DOT": -1.72e-06,
        "MEAN_MOTION_DDOT": 0
    },
    {
        "OBJECT_NAME": "BEIDOU-2 IGSO-4",
        "OBJECT_ID": "2011-038A",
        "EPOCH": "2026-07-22T08:21:49.374432",
        "MEAN_MOTION": 1.00278352,
        "ECCENTRICITY": 0.01601455,
        "INCLINATION": 54.605,
        "RA_OF_ASC_NODE": 165.3599,
        "ARG_OF_PERICENTER": 231.4966,
        "MEAN_ANOMALY": 123.1313,
        "EPHEMERIS_TYPE": 0,
        "CLASSIFICATION_TYPE": "U",
        "NORAD_CAT_ID": 37763,
        "ELEMENT_SET_NO": 999,
        "REV_AT_EPOCH": 5499,
        "BSTAR": 0,
        "MEAN_MOTION_DOT": -3e-07,
        "MEAN_MOTION_DDOT": 0
    }
]
