{"epoch":1784762836,"count":18316,"objects":[{"id":"26599","name":"CHINASAT 32 (BEIDOU 1)","type":"PAYLOAD","l1":"1 26599U 00069A   26203.12428873  .00000018  00000-0  00000-0 0  9993","l2":"2 26599  12.4031  32.0005 0006948 358.5406 359.1890  0.98906826 93524"},{"id":"26643","name":"CHINASAT 31 (BEIDOU 1B)","type":"PAYLOAD","l1":"1 26643U 00082A   26203.15902735  .00000053  00000-0  00000-0 0  9994","l2":"2 26643  12.6411  27.0435 0080419  89.7168 100.3745  0.99252189 52428"},{"id":"27813","name":"BD 1 03","type":"PAYLOAD","l1":"1 27813U 03021A   26203.47546098  .00000037  00000-0  00000-0 0  9993","l2":"2 27813  11.4432  40.8893 0017721 308.2729 316.1024  0.99777816 84653"},{"id":"30323","name":"BEIDOU 1D","type":"PAYLOAD","l1":"1 30323U 07003A   26203.58765581 -.00000250  00000-0  00000-0 0  9997","l2":"2 30323   9.9726  56.5742 0053039 276.3316 342.9116  0.99159859 71057"},{"id":"31115","name":"BEIDOU 2","type":"PAYLOAD","l1":"1 31115U 07011A   26201.64567108  .00000051  00000-0  00000-0 0  9994","l2":"2 31115  50.9225 218.1656 0002111 328.6539  31.3669  1.77349452 76740"},{"id":"34779","name":"COMPASS G2","type":"PAYLOAD","l1":"1 34779U 09018A   26203.08100235 -.00000172  00000-0  00000-0 0  9991","l2":"2 34779  11.5122  41.9160 0304986 286.2152 282.0737  0.94517493 62482"},{"id":"36287","name":"BEIDOU 3","type":"PAYLOAD","l1":"1 36287U 10001A   26203.57081024 -.00000280  00000-0  00000-0 0  9999","l2":"2 36287   4.3748  60.2868 0001726 298.0062 287.9566  1.00270082 60523"},{"id":"36590","name":"BEIDOU 4","type":"PAYLOAD","l1":"1 36590U 10024A   26202.64452233 -.00000137  00000-0  00000-0 0  9993","l2":"2 36590   4.5954  61.3561 0007235 359.4237 190.2146  1.00273888 59110"},{"id":"36828","name":"BEIDOU 5","type":"PAYLOAD","l1":"1 36828U 10036A   26200.58927551 -.00000097  00000-0  00000-0 0  9996","l2":"2 36828  54.3073 162.6674 0058652 225.1805 228.5775  1.00262639 58426"},{"id":"37210","name":"BEIDOU 6","type":"PAYLOAD","l1":"1 37210U 10057A   26203.57471027 -.00000112  00000-0  00000-0 0  9997","l2":"2 37210   3.7330  68.7257 0005253 183.8836  54.5544  1.00273150 57646"},{"id":"37256","name":"BEIDOU 7","type":"PAYLOAD","l1":"1 37256U 10068A   26202.87819282 -.00000198  00000-0  00000-0 0  9994","l2":"2 37256  47.4828 271.3972 0057045 214.5351 238.1175  1.00271863 57143"},{"id":"37384","name":"BEIDOU 8","type":"PAYLOAD","l1":"1 37384U 11013A   26202.49436278 -.00000172  00000-0  00000-0 0  9997","l2":"2 37384  62.4558  39.8259 0035881 183.5212 359.9880  1.00259347 56004"},{"id":"37763","name":"BEIDOU 9","type":"PAYLOAD","l1":"1 37763U 11038A   26203.34848813 -.00000030  00000-0  00000-0 0  9995","l2":"2 37763  54.6050 165.3599 0160145 231.4966 123.1313  1.00278352 54993"}]}